[{"OBJECT_NAME":"HULIANWANG DIGUI-129","OBJECT_ID":"2025-311B","EPOCH":"2026-03-14T18:28:36.027552","MEAN_MOTION":13.29330923,"ECCENTRICITY":7.96e-6,"INCLINATION":50.0058,"RA_OF_ASC_NODE":94.2132,"ARG_OF_PERICENTER":356.4847,"MEAN_ANOMALY":3.6024,"EPHEMERIS_TYPE":0,"CLASSIFICATION_TYPE":"U","NORAD_CAT_ID":67237,"ELEMENT_SET_NO":999,"REV_AT_EPOCH":1078,"BSTAR":0.00015158037,"MEAN_MOTION_DOT":-5.4e-7,"MEAN_MOTION_DDOT":0},{"OBJECT_NAME":"HULIANWANG DIGUI-130","OBJECT_ID":"2025-311C","EPOCH":"2026-03-14T17:52:31.374912","MEAN_MOTION":13.29331119,"ECCENTRICITY":1.111e-5,"INCLINATION":50.0043,"RA_OF_ASC_NODE":94.7219,"ARG_OF_PERICENTER":348.893,"MEAN_ANOMALY":11.194,"EPHEMERIS_TYPE":0,"CLASSIFICATION_TYPE":"U","NORAD_CAT_ID":67238,"ELEMENT_SET_NO":999,"REV_AT_EPOCH":1077,"BSTAR":0.00010874683,"MEAN_MOTION_DOT":-7.4e-7,"MEAN_MOTION_DDOT":0},{"OBJECT_NAME":"HULIANWANG DIGUI-131","OBJECT_ID":"2025-311D","EPOCH":"2026-03-14T18:04:33.144096","MEAN_MOTION":13.29331071,"ECCENTRICITY":1.065e-5,"INCLINATION":50.0039,"RA_OF_ASC_NODE":94.7612,"ARG_OF_PERICENTER":355.6104,"MEAN_ANOMALY":4.4767,"EPHEMERIS_TYPE":0,"CLASSIFICATION_TYPE":"U","NORAD_CAT_ID":67239,"ELEMENT_SET_NO":999,"REV_AT_EPOCH":1077,"BSTAR":0.00011184068,"MEAN_MOTION_DOT":-7.2e-7,"MEAN_MOTION_DDOT":0},{"OBJECT_NAME":"HULIANWANG DIGUI-132","OBJECT_ID":"2025-311E","EPOCH":"2026-03-14T17:28:28.271136","MEAN_MOTION":13.2933108,"ECCENTRICITY":1.174e-5,"INCLINATION":50.005,"RA_OF_ASC_NODE":94.6423,"ARG_OF_PERICENTER":352.7991,"MEAN_ANOMALY":7.2879,"EPHEMERIS_TYPE":0,"CLASSIFICATION_TYPE":"U","NORAD_CAT_ID":67240,"ELEMENT_SET_NO":999,"REV_AT_EPOCH":1077,"BSTAR":0.00013391984,"MEAN_MOTION_DOT":-6.2e-7,"MEAN_MOTION_DDOT":0},{"OBJECT_NAME":"HULIANWANG DIGUI-133","OBJECT_ID":"2025-311F","EPOCH":"2026-03-14T18:52:39.688608","MEAN_MOTION":13.29331004,"ECCENTRICITY":1.01e-5,"INCLINATION":50.0093,"RA_OF_ASC_NODE":94.3202,"ARG_OF_PERICENTER":8.8102,"MEAN_ANOMALY":351.2772,"EPHEMERIS_TYPE":0,"CLASSIFICATION_TYPE":"U","NORAD_CAT_ID":67241,"ELEMENT_SET_NO":999,"REV_AT_EPOCH":1078,"BSTAR":0.0001151224,"MEAN_MOTION_DOT":-7.1e-7,"MEAN_MOTION_DDOT":0},{"OBJECT_NAME":"HULIANWANG DIGUI-134","OBJECT_ID":"2025-311G","EPOCH":"2026-03-14T19:04:41.215872","MEAN_MOTION":13.29331003,"ECCENTRICITY":9.16e-6,"INCLINATION":50.0024,"RA_OF_ASC_NODE":94.3119,"ARG_OF_PERICENTER":354.4328,"MEAN_ANOMALY":5.6543,"EPHEMERIS_TYPE":0,"CLASSIFICATION_TYPE":"U","NORAD_CAT_ID":67242,"ELEMENT_SET_NO":999,"REV_AT_EPOCH":1078,"BSTAR":0.00011030311,"MEAN_MOTION_DOT":-7.3e-7,"MEAN_MOTION_DDOT":0},{"OBJECT_NAME":"HULIANWANG DIGUI-135","OBJECT_ID":"2025-311H","EPOCH":"2026-03-14T23:05:15.995616","MEAN_MOTION":13.29331117,"ECCENTRICITY":1.024e-5,"INCLINATION":50.001,"RA_OF_ASC_NODE":93.8471,"ARG_OF_PERICENTER":356.2481,"MEAN_ANOMALY":3.839,"EPHEMERIS_TYPE":0,"CLASSIFICATION_TYPE":"U","NORAD_CAT_ID":67243,"ELEMENT_SET_NO":999,"REV_AT_EPOCH":1080,"BSTAR":0.00013058685,"MEAN_MOTION_DOT":-6.3e-7,"MEAN_MOTION_DDOT":0},{"OBJECT_NAME":"HULIANWANG DIGUI-136","OBJECT_ID":"2025-311J","EPOCH":"2026-03-14T11:27:35.967168","MEAN_MOTION":13.29331316,"ECCENTRICITY":6.75e-6,"INCLINATION":50.0081,"RA_OF_ASC_NODE":95.3471,"ARG_OF_PERICENTER":356.6548,"MEAN_ANOMALY":3.4323,"EPHEMERIS_TYPE":0,"CLASSIFICATION_TYPE":"U","NORAD_CAT_ID":67244,"ELEMENT_SET_NO":999,"REV_AT_EPOCH":1074,"BSTAR":0.00010820715,"MEAN_MOTION_DOT":-7.4e-7,"MEAN_MOTION_DDOT":0},{"OBJECT_NAME":"HULIANWANG DIGUI-137","OBJECT_ID":"2026-007A","EPOCH":"2026-03-14T10:19:39.095040","MEAN_MOTION":13.30018797,"ECCENTRICITY":5.278e-5,"INCLINATION":50.0077,"RA_OF_ASC_NODE":65.6735,"ARG_OF_PERICENTER":51.2053,"MEAN_ANOMALY":308.8867,"EPHEMERIS_TYPE":0,"CLASSIFICATION_TYPE":"U","NORAD_CAT_ID":67435,"ELEMENT_SET_NO":999,"REV_AT_EPOCH":818,"BSTAR":0.00013687884,"MEAN_MOTION_DOT":-6.0e-7,"MEAN_MOTION_DDOT":0},{"OBJECT_NAME":"HULIANWANG DIGUI-138","OBJECT_ID":"2026-007B","EPOCH":"2026-03-14T07:07:17.470272","MEAN_MOTION":13.30164041,"ECCENTRICITY":0.0001216,"INCLINATION":50.0055,"RA_OF_ASC_NODE":66.2861,"ARG_OF_PERICENTER":216.6588,"MEAN_ANOMALY":143.4201,"EPHEMERIS_TYPE":0,"CLASSIFICATION_TYPE":"U","NORAD_CAT_ID":67436,"ELEMENT_SET_NO":999,"REV_AT_EPOCH":816,"BSTAR":0.00012673789,"MEAN_MOTION_DOT":-6.5e-7,"MEAN_MOTION_DDOT":0},{"OBJECT_NAME":"HULIANWANG DIGUI-139","OBJECT_ID":"2026-007C","EPOCH":"2026-03-14T21:20:52.310112","MEAN_MOTION":13.29814572,"ECCENTRICITY":6.736e-5,"INCLINATION":50.0085,"RA_OF_ASC_NODE":64.0749,"ARG_OF_PERICENTER":332.2978,"MEAN_ANOMALY":27.7858,"EPHEMERIS_TYPE":0,"CLASSIFICATION_TYPE":"U","NORAD_CAT_ID":67437,"ELEMENT_SET_NO":999,"REV_AT_EPOCH":824,"BSTAR":0.00015578076,"MEAN_MOTION_DOT":-5.1e-7,"MEAN_MOTION_DDOT":0},{"OBJECT_NAME":"HULIANWANG DIGUI-140","OBJECT_ID":"2026-007D","EPOCH":"2026-03-14T12:43:46.776000","MEAN_MOTION":13.29812326,"ECCENTRICITY":9.29e-5,"INCLINATION":50.0036,"RA_OF_ASC_NODE":65.5218,"ARG_OF_PERICENTER":3.4892,"MEAN_ANOMALY":356.5986,"EPHEMERIS_TYPE":0,"CLASSIFICATION_TYPE":"U","NORAD_CAT_ID":67438,"ELEMENT_SET_NO":999,"REV_AT_EPOCH":819,"BSTAR":0.00014883793,"MEAN_MOTION_DOT":-5.5e-7,"MEAN_MOTION_DDOT":0},{"OBJECT_NAME":"HULIANWANG DIGUI-141","OBJECT_ID":"2026-007E","EPOCH":"2026-03-14T17:20:31.410528","MEAN_MOTION":13.30349855,"ECCENTRICITY":4.537e-5,"INCLINATION":50.0057,"RA_OF_ASC_NODE":64.5335,"ARG_OF_PERICENTER":336.4684,"MEAN_ANOMALY":23.6168,"EPHEMERIS_TYPE":0,"CLASSIFICATION_TYPE":"U","NORAD_CAT_ID":67439,"ELEMENT_SET_NO":999,"REV_AT_EPOCH":822,"BSTAR":0.00014916947,"MEAN_MOTION_DOT":-5.4e-7,"MEAN_MOTION_DDOT":0},{"OBJECT_NAME":"HULIANWANG DIGUI-142","OBJECT_ID":"2026-007F","EPOCH":"2026-03-11T22:31:03.754560","MEAN_MOTION":13.33903222,"ECCENTRICITY":0.0002249,"INCLINATION":50.0117,"RA_OF_ASC_NODE":74.5259,"ARG_OF_PERICENTER":344.1947,"MEAN_ANOMALY":15.8856,"EPHEMERIS_TYPE":0,"CLASSIFICATION_TYPE":"U","NORAD_CAT_ID":67440,"ELEMENT_SET_NO":999,"REV_AT_EPOCH":785,"BSTAR":-1.6308394e-5,"MEAN_MOTION_DOT":-1.34e-6,"MEAN_MOTION_DDOT":0},{"OBJECT_NAME":"HULIANWANG DIGUI-143","OBJECT_ID":"2026-007G","EPOCH":"2026-03-14T11:32:30.806304","MEAN_MOTION":13.30811975,"ECCENTRICITY":0.0001046,"INCLINATION":50.0098,"RA_OF_ASC_NODE":65.2919,"ARG_OF_PERICENTER":302.8657,"MEAN_ANOMALY":57.2115,"EPHEMERIS_TYPE":0,"CLASSIFICATION_TYPE":"U","NORAD_CAT_ID":67441,"ELEMENT_SET_NO":999,"REV_AT_EPOCH":819,"BSTAR":0.0001624975,"MEAN_MOTION_DOT":-4.7e-7,"MEAN_MOTION_DDOT":0},{"OBJECT_NAME":"HULIANWANG DIGUI-144","OBJECT_ID":"2026-007H","EPOCH":"2026-03-12T10:43:43.746240","MEAN_MOTION":13.33830953,"ECCENTRICITY":0.00042448,"INCLINATION":49.9552,"RA_OF_ASC_NODE":72.5418,"ARG_OF_PERICENTER":224.4075,"MEAN_ANOMALY":135.6458,"EPHEMERIS_TYPE":0,"CLASSIFICATION_TYPE":"U","NORAD_CAT_ID":67442,"ELEMENT_SET_NO":999,"REV_AT_EPOCH":792,"BSTAR":0.00012623093,"MEAN_MOTION_DOT":-6.3e-7,"MEAN_MOTION_DDOT":0}]
