HULIANWANG DIGUI-129    
1 67237U 25311B   26073.76986143 -.00000054  00000+0  15158-3 0  9991
2 67237  50.0058  94.2132 0000079 356.4847   3.6024 13.29330923 10785
HULIANWANG DIGUI-130    
1 67238U 25311C   26073.74480758 -.00000074  00000+0  10875-3 0  9994
2 67238  50.0043  94.7219 0000111 348.8930  11.1940 13.29331119 10774
HULIANWANG DIGUI-131    
1 67239U 25311D   26073.75316139 -.00000072  00000+0  11184-3 0  9999
2 67239  50.0039  94.7612 0000106 355.6104   4.4767 13.29331071 10779
HULIANWANG DIGUI-132    
1 67240U 25311E   26073.72810499 -.00000062  00000+0  13392-3 0  9998
2 67240  50.0050  94.6423 0000117 352.7991   7.2879 13.29331080 10772
HULIANWANG DIGUI-133    
1 67241U 25311F   26073.78657047 -.00000071  00000+0  11512-3 0  9995
2 67241  50.0093  94.3202 0000101   8.8102 351.2772 13.29331004 10789
HULIANWANG DIGUI-134    
1 67242U 25311G   26073.79492148 -.00000073  00000+0  11030-3 0  9993
2 67242  50.0024  94.3119 0000091 354.4328   5.6543 13.29331003 10784
HULIANWANG DIGUI-135    
1 67243U 25311H   26073.96199069 -.00000063  00000+0  13059-3 0  9991
2 67243  50.0010  93.8471 0000102 356.2481   3.8390 13.29331117 10807
HULIANWANG DIGUI-136    
1 67244U 25311J   26073.47749962 -.00000074  00000+0  10821-3 0  9997
2 67244  50.0081  95.3471 0000067 356.6548   3.4323 13.29331316 10747
HULIANWANG DIGUI-137    
1 67435U 26007A   26073.43031360 -.00000060  00000+0  13688-3 0  9993
2 67435  50.0077  65.6735 0000527  51.2053 308.8867 13.30018797  8184
HULIANWANG DIGUI-138    
1 67436U 26007B   26073.29672998 -.00000065  00000+0  12674-3 0  9995
2 67436  50.0055  66.2861 0001216 216.6588 143.4201 13.30164041  8161
HULIANWANG DIGUI-139    
1 67437U 26007C   26073.88949433 -.00000051  00000+0  15578-3 0  9993
2 67437  50.0085  64.0749 0000673 332.2978  27.7858 13.29814572  8240
HULIANWANG DIGUI-140    
1 67438U 26007D   26073.53040250 -.00000055  00000+0  14884-3 0  9998
2 67438  50.0036  65.5218 0000929   3.4892 356.5986 13.29812326  8194
HULIANWANG DIGUI-141    
1 67439U 26007E   26073.72258577 -.00000054  00000+0  14917-3 0  9999
2 67439  50.0057  64.5335 0000453 336.4684  23.6168 13.30349855  8229
HULIANWANG DIGUI-142    
1 67440U 26007F   26070.93823790 -.00000134  00000+0 -16308-4 0  9993
2 67440  50.0117  74.5259 0002249 344.1947  15.8856 13.33903222  7859
HULIANWANG DIGUI-143    
1 67441U 26007G   26073.48091211 -.00000047  00000+0  16250-3 0  9999
2 67441  50.0098  65.2919 0001046 302.8657  57.2115 13.30811975  8197
HULIANWANG DIGUI-144    
1 67442U 26007H   26071.44703410 -.00000063  00000+0  12623-3 0  9993
2 67442  49.9552  72.5418 0004244 224.4075 135.6458 13.33830953  7922
